ONEWEB-0018             
1 45434U 20020L   25232.60862096 -.00000547  00000+0 -15788-2 0  9993
2 45434  87.8777  80.9607 0001749  82.5524 277.5803 13.11417466263235
ONEWEB-0083             
1 45435U 20020M   25232.59844281 -.00000403  00000+0 -11728-2 0  9999
2 45435  87.8786  80.9502 0001674  85.0986 275.0333 13.11414028263273
ONEWEB-0095             
1 45436U 20020N   25232.59013845  .00000511  00000+0  14073-2 0  9998
2 45436  87.8774  80.9739 0001649 111.9108 248.2195 13.11410680263278
ONEWEB-0092             
1 45437U 20020P   25232.56200219  .00000469  00000+0  12879-2 0  9993
2 45437  87.8788  80.9692 0001762  92.3290 267.8040 13.11418016263381
ONEWEB-0085             
1 45438U 20020Q   25232.59691526 -.00000331  00000+0 -97728-3 0  9999
2 45438  87.8780  80.9766 0001722  89.9614 270.1711 13.10856012263275
ONEWEB-0096             
1 45439U 20020R   25232.60014514 -.00000416  00000+0 -12107-2 0  9999
2 45439  87.8793  80.9424 0001870  80.3445 279.7894 13.11415552263269
ONEWEB-0037             
1 45440U 20020S   25232.58065358  .00000346  00000+0  94023-3 0  9998
2 45440  87.8796  80.9114 0001727  88.2059 271.9266 13.11416375263293
ONEWEB-0042             
1 45441U 20020T   25232.58982270 -.00000094  00000+0 -30056-3 0  9998
2 45441  87.8785  80.9525 0001827  87.5066 272.6271 13.11413394263268
